190 Ismene,e,6.164491,176.065787,274.207352,3.98396341,0,0.16671723,59.111619,1/22/1999,2000.0,7.59,0.15
191 Kolga,e,11.503651,159.539592,226.880431,2.89679459,0,0.08634189,126.186728,1/22/1999,2000.0,9.07,0.15
192 Nausikaa,e,6.823812,343.530378,29.857283,2.40324282,0,0.24692143,200.682875,1/22/1999,2000.0,7.13,0.03
193 Ambrosia,e,12.03849,350.272041,81.015021,2.60141362,0,0.29451334,268.482335,1/22/1999,2000.0,9.68,0.15
194 Prokne,e,18.50098,159.611063,163.399955,2.61716554,0,0.23594521,351.983943,1/22/1999,2000.0,7.68,0.15
195 Eurykleia,e,6.979733,7.277198,118.339925,2.88065995,0,0.0397253,262.169422,1/22/1999,2000.0,9.01,0.15
196 Philomela,e,7.253975,72.67052,207.974964,3.11217654,0,0.02536916,196.135273,1/22/1999,2000.0,6.54,0.15
197 Arete,e,8.788326,81.812305,246.122071,2.73867769,0,0.16371384,70.026091,1/22/1999,2000.0,9.18,0.15
198 Ampella,e,9.297498,268.712803,88.473336,2.4579724,0,0.22954827,294.651851,1/22/1999,2000.0,8.33,0.15
199 Byblis,e,15.312312,89.448654,177.5172,3.19085196,0,0.16203522,55.458094,1/22/1999,2000.0,8.3,0.15
200 Dynamene,e,6.91019,324.812133,85.263359,2.73760875,0,0.13150685,57.665135,1/22/1999,2000.0,8.26,0.15
201 Penelope,e,5.763794,157.197112,180.510218,2.67642939,0,0.18257034,80.661249,1/22/1999,2000.0,8.43,0.24
202 Chryseis,e,8.832569,137.137627,359.224577,3.07392451,0,0.09486897,282.077154,1/22/1999,2000.0,7.42,0.15
203 Pompeja,e,3.185499,348.083776,58.580631,2.73740562,0,0.05834703,93.230236,1/22/1999,2000.0,8.76,0.15
204 Kallisto,e,8.266097,205.354611,55.867457,2.67084072,0,0.17452745,225.540487,1/22/1999,2000.0,8.89,0.15
205 Martha,e,10.699273,212.132572,176.552681,2.77599301,0,0.0360193,276.382425,1/22/1999,2000.0,9.23,0.15
206 Hersilia,e,3.779411,145.312624,302.204412,2.74033974,0,0.03845694,36.331997,1/22/1999,2000.0,8.68,0.15
207 Hedda,e,3.807501,29.352168,191.183898,2.28393465,0,0.02918822,9.371623,1/22/1999,2000.0,9.92,0.15
208 Lacrimosa,e,1.753344,4.614014,130.840699,2.89217838,0,0.01233772,345.173969,1/22/1999,2000.0,8.96,0.15
209 Dido,e,7.181856,0.875445,253.192451,3.14527699,0,0.065399,256.551919,1/22/1999,2000.0,8.24,0.15
210 Isabella,e,5.265151,32.948427,14.540067,2.7218904,0,0.12337435,189.194862,1/22/1999,2000.0,9.33,0.15
211 Isolda,e,3.883752,263.854554,175.456659,3.0425746,0,0.16046341,148.335342,1/22/1999,2000.0,7.89,0.12
212 Medea,e,4.2679,313.864398,99.608678,3.11601979,0,0.11607849,321.803899,1/22/1999,2000.0,8.28,0.15
213 Lilaea,e,6.804287,122.256638,161.855957,2.75264611,0,0.14683529,259.168555,1/22/1999,2000.0,8.64,0.15
214 Aschera,e,3.432264,342.33819,133.8447,2.61149126,0,0.03048816,109.913629,1/22/1999,2000.0,9.5,0.51
215 Oenone,e,1.691097,25.116149,316.444522,2.76673813,0,0.03444986,159.903644,1/22/1999,2000.0,9.59,0.15
216 Kleopatra,e,13.138187,215.696763,179.303897,2.79175012,0,0.25339189,310.424986,1/22/1999,2000.0,7.3,0.29
217 Eudora,e,10.479593,163.175438,154.363373,2.86938488,0,0.30823419,135.257132,1/22/1999,2000.0,9.8,0.15
218 Bianca,e,15.230486,170.921276,61.547288,2.66726157,0,0.11606377,163.020879,1/22/1999,2000.0,8.6,0.32
219 Thusnelda,e,10.842903,201.001359,142.303125,2.35371329,0,0.22410268,292.015402,1/22/1999,2000.0,9.32,0.15
220 Stephania,e,7.588764,258.146907,78.404413,2.349314,0,0.25679845,176.936196,1/22/1999,2000.0,11,0.15
221 Eos,e,10.860599,142.195064,195.693947,3.01249741,0,0.09787201,297.220583,1/22/1999,2000.0,7.67,0.13
222 Lucia,e,2.160024,80.445208,179.128372,3.13309745,0,0.14404446,295.578305,1/22/1999,2000.0,9.13,0.15
223 Rosa,e,1.944371,48.364688,58.59776,3.08868527,0,0.12795227,233.861244,1/22/1999,2000.0,9.68,0.15
224 Oceana,e,5.84144,353.247326,280.54404,2.64468012,0,0.04435797,338.934074,1/22/1999,2000.0,8.59,0.15
225 Henrietta,e,20.902968,197.247207,104.859864,3.38226542,0,0.26971795,226.130576,1/22/1999,2000.0,8.72,0.15
226 Weringia,e,15.916925,135.341077,153.069527,2.71477652,0,0.20223165,43.764083,1/22/1999,2000.0,9.7,0.15
227 Philosophia,e,9.138332,328.141985,261.642392,3.14192944,0,0.20542349,30.101492,1/22/1999,2000.0,8.7,0.15
228 Agathe,e,2.538853,313.614683,18.629681,2.20193553,0,0.24135732,228.305895,1/22/1999,2000.0,12.48,0.15
229 Adelinda,e,2.093373,28.367303,312.413886,3.41335803,0,0.1489769,158.664961,1/22/1999,2000.0,9.13,0.15
230 Athamantis,e,9.436147,240.007042,139.757745,2.38264298,0,0.06081247,200.101711,1/22/1999,2000.0,7.35,0.27
231 Vindobona,e,5.102942,350.942269,268.011206,2.91687511,0,0.15808692,188.820473,1/22/1999,2000.0,9.2,0.15
232 Russia,e,6.081251,152.811218,49.785115,2.55016589,0,0.17837621,108.435859,1/22/1999,2000.0,10.25,0.15
233 Asterope,e,7.665362,222.321505,124.534247,2.65966022,0,0.10079686,125.429696,1/22/1999,2000.0,8.21,0.15
234 Barbara,e,15.346897,144.696218,191.630717,2.38568037,0,0.24373918,106.587631,1/22/1999,2000.0,9.02,0.15
235 Carolina,e,9.04645,66.375336,207.329198,2.88162782,0,0.05994,330.984815,1/22/1999,2000.0,8.82,0.15
236 Honoria,e,7.69621,186.204217,173.879721,2.79808183,0,0.19161698,29.045548,1/22/1999,2000.0,8.18,-0.02
237 Coelestina,e,9.759746,84.504384,198.639911,2.76232767,0,0.07183395,320.249359,1/22/1999,2000.0,9.24,0.15
238 Hypatia,e,12.411183,184.231477,207.508275,2.90923876,0,0.09151048,340.967025,1/22/1999,2000.0,8.18,0.15
239 Adrastea,e,6.162151,180.972449,208.079834,2.97299447,0,0.2291091,85.014676,1/22/1999,2000.0,10.3,0.15
240 Vanadis,e,2.104449,115.260582,300.352728,2.66527133,0,0.20475613,50.561523,1/22/1999,2000.0,9,0.15
241 Germania,e,5.516782,271.090896,74.726838,3.0520696,0,0.0975342,180.582166,1/22/1999,2000.0,7.58,0.15
242 Kriemhild,e,11.327748,207.471646,277.304768,2.86093608,0,0.1225984,130.990741,1/22/1999,2000.0,9.2,0.15
245 Vera,e,5.177996,61.578553,326.824098,3.09130515,0,0.20191252,47.27685,1/22/1999,2000.0,7.82,0.15
246 Asporina,e,15.647766,162.552537,96.278111,2.69332798,0,0.1080692,186.783982,1/22/1999,2000.0,8.62,0.15
247 Eukrate,e,24.977235,0.295484,55.176688,2.74252255,0,0.243229,125.743407,1/22/1999,2000.0,8.04,0.15
248 Lameia,e,4.042322,247.198058,11.077819,2.47239793,0,0.06334105,79.854914,1/22/1999,2000.0,10.21,0.15
249 Ilse,e,9.642652,334.910916,41.758437,2.37692278,0,0.21668508,304.091054,1/22/1999,2000.0,11.33,0.15
250 Bettina,e,12.844503,24.141715,74.24037,3.14974768,0,0.12403423,10.744535,1/22/1999,2000.0,7.58,0.15
252 Clementina,e,10.066644,202.321267,154.294168,3.15432585,0,0.07809947,88.873698,1/22/1999,2000.0,9.1,0.15
253 Mathilde,e,6.709194,179.862977,156.290396,2.64641718,0,0.26585062,146.910242,1/22/1999,2000.0,10.2,0.15
257 Silesia,e,3.649755,34.914314,24.420856,3.11853773,0,0.1219312,328.108195,1/22/1999,2000.0,9.47,0.15
258 Tyche,e,14.263397,207.881345,154.101408,2.61545798,0,0.20389815,107.440931,1/22/1999,2000.0,8.5,0.23
259 Aletheia,e,10.757443,87.565265,167.365638,3.15255424,0,0.11380122,88.609279,1/22/1999,2000.0,7.76,0.15
260 Huberta,e,6.442726,165.886227,177.290027,3.43885091,0,0.1267717,206.978156,1/22/1999,2000.0,8.97,0.15
261 Prymno,e,3.634398,96.805221,65.446584,2.33118178,0,0.09097455,64.500942,1/22/1999,2000.0,9.44,0.19
264 Libussa,e,10.433538,49.819816,339.329224,2.79936471,0,0.13748578,349.175015,1/22/1999,2000.0,8.42,0.15
265 Anna,e,25.628532,335.657548,252.027632,2.41928702,0,0.26802088,208.538721,1/22/1999,2000.0,11.2,0.15
266 Aline,e,13.385812,236.186595,150.919956,2.80624732,0,0.15463648,149.431626,1/22/1999,2000.0,8.8,0.15
268 Adorea,e,2.436191,121.00067,70.400982,3.0967733,0,0.13028585,222.584173,1/22/1999,2000.0,8.28,0.15
269 Justitia,e,5.478231,156.846776,120.214033,2.61491821,0,0.21451412,168.508673,1/22/1999,2000.0,9.5,0.15
270 Anahita,e,2.366837,254.688548,79.918773,2.1978699,0,0.15059852,84.425921,1/22/1999,2000.0,8.75,0.15
273 Atropos,e,20.420857,159.244917,119.979376,2.39515369,0,0.16073349,227.513035,1/22/1999,2000.0,10.26,0.15
275 Sapientia,e,4.768571,134.316044,37.940915,2.77311902,0,0.16198159,16.997535,1/22/1999,2000.0,8.85,0.15
276 Adelheid,e,21.655869,211.434185,270.401135,3.1125582,0,0.07286762,131.86346,1/22/1999,2000.0,8.56,0.15
277 Elvira,e,1.155635,231.863494,133.607942,2.88393322,0,0.09062725,63.555591,1/22/1999,2000.0,9.84,0.15
278 Paulina,e,7.820657,62.233387,138.867327,2.75379131,0,0.13443158,106.783262,1/22/1999,2000.0,9.4,0.15
282 Clorinde,e,9.022727,145.08787,295.260337,2.33984212,0,0.08075351,315.111207,1/22/1999,2000.0,10.91,0.15
283 Emma,e,7.991076,304.574288,54.640994,3.04437016,0,0.15458812,18.610223,1/22/1999,2000.0,8.72,0.15
284 Amalia,e,8.055731,234.064072,57.768164,2.35878838,0,0.22354386,58.114092,1/22/1999,2000.0,10.05,0.11
287 Nephthys,e,10.021339,142.517032,120.103164,2.35235805,0,0.02467482,179.011448,1/22/1999,2000.0,8.3,0.22
288 Glauke,e,4.329814,120.601274,83.4856,2.75544413,0,0.20931122,240.036691,1/22/1999,2000.0,9.84,0.15
289 Nenetta,e,6.688616,182.340031,190.03322,2.87360503,0,0.20445059,247.595495,1/22/1999,2000.0,9.51,0.15
290 Bruna,e,22.315073,10.677169,104.803391,2.33635777,0,0.25946023,207.117055,1/22/1999,2000.0,11.5,0.15
292 Ludovica,e,14.932238,43.729185,284.397606,2.52942497,0,0.0323523,261.442141,1/22/1999,2000.0,9.5,0.15
293 Brasilia,e,15.574217,61.471394,87.422418,2.86467995,0,0.10361734,243.918291,1/22/1999,2000.0,9.94,0.15
294 Felicia,e,6.303627,136.302537,184.801187,3.13743059,0,0.24741889,163.563356,1/22/1999,2000.0,9.6,0.15
295 Theresia,e,2.699951,276.519599,147.204124,2.79661952,0,0.16824621,358.31381,1/22/1999,2000.0,10.19,0.15
297 Caecilia,e,7.552773,332.269482,356.329257,3.16015422,0,0.14654628,72.747878,1/22/1999,2000.0,9.5,0.15
298 Baptistina,e,6.290181,8.39426,134.254834,2.26328345,0,0.09638078,158.698728,1/22/1999,2000.0,11,0.15
302 Clarissa,e,3.413907,8.006837,54.195566,2.40633047,0,0.11201647,323.693678,1/22/1999,2000.0,10.89,0.15
303 Josephina,e,6.896094,344.379438,69.140302,3.12085732,0,0.07155459,288.553109,1/22/1999,2000.0,8.7,0.15
304 Olga,e,15.814925,159.329931,171.939438,2.40445337,0,0.21994452,171.589536,1/22/1999,2000.0,9.74,0.07
305 Gordonia,e,4.445737,207.912813,259.119499,3.09912394,0,0.18446721,328.050459,1/22/1999,2000.0,8.77,0.15
